{"type": "FeatureCollection", "features": [ {"type": "Feature", "properties": {"norad_id": 36539, "name": "COSMOS 2251 DEB", "group": "cosmos-2251-debris", "lat": -74.01369491864472, "lon": -28.746029091759915, "alt_km": 693.7988035448616, "timestamp": "2025-12-09T16:56:36.971674+00:00", "meta": {"OBJECT_NAME": "COSMOS 2251 DEB", "OBJECT_ID": "1993-036BCZ", "EPOCH": "2025-12-09T12:25:11.040960", "MEAN_MOTION": 14.59267197, "ECCENTRICITY": 0.002739, "INCLINATION": 74.0239, "RA_OF_ASC_NODE": 61.3266, "ARG_OF_PERICENTER": 207.0091, "MEAN_ANOMALY": 152.9651, "EPHEMERIS_TYPE": 0, "CLASSIFICATION_TYPE": "U", "NORAD_CAT_ID": 36539, "ELEMENT_SET_NO": 999, "REV_AT_EPOCH": 83900, "BSTAR": 0.0012054, "MEAN_MOTION_DOT": 5.697e-05, "MEAN_MOTION_DDOT": 0}, "tle": {"line1": "1 36539U 93036BCZ 25343.51748890  .00005697  00000+0  12054-2 0  9996", "line2": "2 36539  74.0239  61.3266 0027390 207.0091 152.9651 14.59267197839007"}}, "geometry": {"type": "Point", "coordinates": [-28.746029091759915, -74.01369491864472]}}, {"type": "Feature", "properties": {"norad_id": 36540, "name": "COSMOS 2251 DEB", "group": "cosmos-2251-debris", "lat": -57.00064820870487, "lon": 32.46416296700517, "alt_km": 694.6280765898855, "timestamp": "2025-12-09T16:56:36.971685+00:00", "meta": {"OBJECT_NAME": "COSMOS 2251 DEB", "OBJECT_ID": "1993-036BDA", "EPOCH": "2025-12-08T23:22:46.979040", "MEAN_MOTION": 14.58425444, "ECCENTRICITY": 0.0015171, "INCLINATION": 74.0278, "RA_OF_ASC_NODE": 187.6868, "ARG_OF_PERICENTER": 257.9646, "MEAN_ANOMALY": 101.9818, "EPHEMERIS_TYPE": 0, "CLASSIFICATION_TYPE": "U", "NORAD_CAT_ID": 36540, "ELEMENT_SET_NO": 999, "REV_AT_EPOCH": 85955, "BSTAR": 0.001195, "MEAN_MOTION_DOT": 5.525e-05, "MEAN_MOTION_DDOT": 0}, "tle": {"line1": "1 36540U 93036BDA 25342.97415485  .00005525  00000+0  11950-2 0  9992", "line2": "2 36540  74.0278 187.6868 0015171 257.9646 101.9818 14.58425444859557"}}, "geometry": {"type": "Point", "coordinates": [32.46416296700517, -57.00064820870487]}}, {"type": "Feature", "properties": {"norad_id": 36550, "name": "COSMOS 2251 DEB", "group": "cosmos-2251-debris", "lat": 58.05173185894456, "lon": -134.4605136290982, "alt_km": 851.2890658354518, "timestamp": "2025-12-09T16:56:36.971695+00:00", "meta": {"OBJECT_NAME": "COSMOS 2251 DEB", "OBJECT_ID": "1993-036BDL", "EPOCH": "2025-12-05T23:29:18.021984", "MEAN_MOTION": 14.27168955, "ECCENTRICITY": 0.00788112, "INCLINATION": 74.0447, "RA_OF_ASC_NODE": 204.9723, "ARG_OF_PERICENTER": 257.0912, "MEAN_ANOMALY": 102.1425, "EPHEMERIS_TYPE": 0, "CLASSIFICATION_TYPE": "U", "NORAD_CAT_ID": 36550, "ELEMENT_SET_NO": 999, "REV_AT_EPOCH": 84499, "BSTAR": 0.0010210292, "MEAN_MOTION_DOT": 2.55e-05, "MEAN_MOTION_DDOT": 0}, "tle": {"line1": "1 36550U 93036BDL 25339.97868081  .00002550  00000+0  10210-2 0  9996", "line2": "2 36550  74.0447 204.9723 0078811 257.0912 102.1425 14.27168955844992"}}, "geometry": {"type": "Point", "coordinates": [-134.4605136290982, 58.05173185894456]}}, {"type": "Feature", "properties": {"norad_id": 36551, "name": "COSMOS 2251 DEB", "group": "cosmos-2251-debris", "lat": 16.298761882311112, "lon": 25.800240969928836, "alt_km": 535.3302969027573, "timestamp": "2025-12-09T16:56:36.971706+00:00", "meta": {"OBJECT_NAME": "COSMOS 2251 DEB", "OBJECT_ID": "1993-036BDM", "EPOCH": "2025-12-09T08:52:41.816352", "MEAN_MOTION": 15.02393248, "ECCENTRICITY": 0.0051264, "INCLINATION": 73.8875, "RA_OF_ASC_NODE": 21.6431, "ARG_OF_PERICENTER": 331.1332, "MEAN_ANOMALY": 28.702, "EPHEMERIS_TYPE": 0, "CLASSIFICATION_TYPE": "U", "NORAD_CAT_ID": 36551, "ELEMENT_SET_NO": 999, "REV_AT_EPOCH": 66881, "BSTAR": 0.0017574, "MEAN_MOTION_DOT": 0.00023986, "MEAN_MOTION_DDOT": 0}, "tle": {"line1": "1 36551U 93036BDM 25343.36992843  .00023986  00000+0  17574-2 0  9995", "line2": "2 36551  73.8875  21.6431 0051264 331.1332  28.7020 15.02393248668816"}}, "geometry": {"type": "Point", "coordinates": [25.800240969928836, 16.298761882311112]}}, {"type": "Feature", "properties": {"norad_id": 36557, "name": "COSMOS 2251 DEB", "group": "cosmos-2251-debris", "lat": -73.24916094599492, "lon": 24.90436252670561, "alt_km": 628.591167736432, "timestamp": "2025-12-09T16:56:36.971716+00:00", "meta": {"OBJECT_NAME": "COSMOS 2251 DEB", "OBJECT_ID": "1993-036BDT", "EPOCH": "2025-12-08T17:00:11.364768", "MEAN_MOTION": 14.77931999, "ECCENTRICITY": 0.00210313, "INCLINATION": 73.9794, "RA_OF_ASC_NODE": 134.1932, "ARG_OF_PERICENTER": 285.3686, "MEAN_ANOMALY": 74.5165, "EPHEMERIS_TYPE": 0, "CLASSIFICATION_TYPE": "U", "NORAD_CAT_ID": 36557, "ELEMENT_SET_NO": 999, "REV_AT_EPOCH": 33837, "BSTAR": 0.00427946, "MEAN_MOTION_DOT": 0.00031056, "MEAN_MOTION_DDOT": 0}, "tle": {"line1": "1 36557U 93036BDT 25342.70846487  .00031056  00000+0  42795-2 0  9990", "line2": "2 36557  73.9794 134.1932 0021031 285.3686  74.5165 14.77931999338376"}}, "geometry": {"type": "Point", "coordinates": [24.90436252670561, -73.24916094599492]}}, {"type": "Feature", "properties": {"norad_id": 36558, "name": "COSMOS 2251 DEB", "group": "cosmos-2251-debris", "lat": 73.8488513414379, "lon": -100.84782326154784, "alt_km": 709.3200078864293, "timestamp": "2025-12-09T16:56:36.971726+00:00", "meta": {"OBJECT_NAME": "COSMOS 2251 DEB", "OBJECT_ID": "1993-036BDU", "EPOCH": "2025-12-09T11:34:12.535392", "MEAN_MOTION": 14.55320351, "ECCENTRICITY": 0.0012976, "INCLINATION": 74.0419, "RA_OF_ASC_NODE": 160.7101, "ARG_OF_PERICENTER": 249.1961, "MEAN_ANOMALY": 110.7812, "EPHEMERIS_TYPE": 0, "CLASSIFICATION_TYPE": "U", "NORAD_CAT_ID": 36558, "ELEMENT_SET_NO": 999, "REV_AT_EPOCH": 85221, "BSTAR": 0.0013348, "MEAN_MOTION_DOT": 5.771e-05, "MEAN_MOTION_DDOT": 0}, "tle": {"line1": "1 36558U 93036BDU 25343.48208953  .00005771  00000+0  13348-2 0  9994", "line2": "2 36558  74.0419 160.7101 0012976 249.1961 110.7812 14.55320351852214"}}, "geometry": {"type": "Point", "coordinates": [-100.84782326154784, 73.8488513414379]}}, {"type": "Feature", "properties": {"norad_id": 36559, "name": "COSMOS 2251 DEB", "group": "cosmos-2251-debris", "lat": -41.20005853650117, "lon": -150.58478067348514, "alt_km": 1105.3697683771607, "timestamp": "2025-12-09T16:56:36.971736+00:00", "meta": {"OBJECT_NAME": "COSMOS 2251 DEB", "OBJECT_ID": "1993-036BDV", "EPOCH": "2025-12-09T02:07:20.280288", "MEAN_MOTION": 13.95143806, "ECCENTRICITY": 0.02599602, "INCLINATION": 74.1299, "RA_OF_ASC_NODE": 16.0496, "ARG_OF_PERICENTER": 49.9692, "MEAN_ANOMALY": 312.3935, "EPHEMERIS_TYPE": 0, "CLASSIFICATION_TYPE": "U", "NORAD_CAT_ID": 36559, "ELEMENT_SET_NO": 999, "REV_AT_EPOCH": 81043, "BSTAR": 0.0028021544, "MEAN_MOTION_DOT": 4.995e-05, "MEAN_MOTION_DDOT": 0}, "tle": {"line1": "1 36559U 93036BDV 25343.08842917  .00004995  00000+0  28022-2 0  9997", "line2": "2 36559  74.1299  16.0496 0259960  49.9692 312.3935 13.95143806810430"}}, "geometry": {"type": "Point", "coordinates": [-150.58478067348514, -41.20005853650117]}}, {"type": "Feature", "properties": {"norad_id": 36614, "name": "COSMOS 2251 DEB", "group": "cosmos-2251-debris", "lat": 52.84722765238414, "lon": -157.39948629496018, "alt_km": 698.4173940969831, "timestamp": "2025-12-09T16:56:36.971747+00:00", "meta": {"OBJECT_NAME": "COSMOS 2251 DEB", "OBJECT_ID": "1993-036BEC", "EPOCH": "2025-12-07T20:17:29.491872", "MEAN_MOTION": 14.60174339, "ECCENTRICITY": 0.00163717, "INCLINATION": 74.0208, "RA_OF_ASC_NODE": 183.9343, "ARG_OF_PERICENTER": 254.1253, "MEAN_ANOMALY": 105.8109, "EPHEMERIS_TYPE": 0, "CLASSIFICATION_TYPE": "U", "NORAD_CAT_ID": 36614, "ELEMENT_SET_NO": 999, "REV_AT_EPOCH": 65541, "BSTAR": 0.0021436205, "MEAN_MOTION_DOT": 0.00010332, "MEAN_MOTION_DDOT": 0}, "tle": {"line1": "1 36614U 93036BEC 25341.84548023  .00010332  00000+0  21436-2 0  9996", "line2": "2 36614  74.0208 183.9343 0016371 254.1253 105.8109 14.60174339655417"}}, "geometry": {"type": "Point", "coordinates": [-157.39948629496018, 52.84722765238414]}}, {"type": "Feature", "properties": {"norad_id": 36622, "name": "COSMOS 2251 DEB", "group": "cosmos-2251-debris", "lat": -50.283088809035675, "lon": 131.23623603839914, "alt_km": 602.5721790534672, "timestamp": "2025-12-09T16:56:36.971757+00:00", "meta": {"OBJECT_NAME": "COSMOS 2251 DEB", "OBJECT_ID": "1993-036BEL", "EPOCH": "2025-12-07T18:00:44.362080", "MEAN_MOTION": 14.76130008, "ECCENTRICITY": 0.00687085, "INCLINATION": 74.0127, "RA_OF_ASC_NODE": 155.2579, "ARG_OF_PERICENTER": 291.6324, "MEAN_ANOMALY": 67.7541, "EPHEMERIS_TYPE": 0, "CLASSIFICATION_TYPE": "U", "NORAD_CAT_ID": 36622, "ELEMENT_SET_NO": 999, "REV_AT_EPOCH": 66676, "BSTAR": 0.0010654006, "MEAN_MOTION_DOT": 7.621e-05, "MEAN_MOTION_DDOT": 0}, "tle": {"line1": "1 36622U 93036BEL 25341.75051345  .00007621  00000+0  10654-2 0  9998", "line2": "2 36622  74.0127 155.2579 0068708 291.6324  67.7541 14.76130008666763"}}, "geometry": {"type": "Point", "coordinates": [131.23623603839914, -50.283088809035675]}}, {"type": "Feature", "properties": {"norad_id": 36632, "name": "COSMOS 2251 DEB", "group": "cosmos-2251-debris", "lat": 65.21568561503436, "lon": 79.60646524996385, "alt_km": 730.9263308578775, "timestamp": "2025-12-09T16:56:36.971767+00:00", "meta": {"OBJECT_NAME": "COSMOS 2251 DEB", "OBJECT_ID": "1993-036BEW", "EPOCH": "2025-12-08T03:50:26.997216", "MEAN_MOTION": 14.43133085, "ECCENTRICITY": 0.00317609, "INCLINATION": 74.0032, "RA_OF_ASC_NODE": 300.8928, "ARG_OF_PERICENTER": 49.809, "MEAN_ANOMALY": 310.5839, "EPHEMERIS_TYPE": 0, "CLASSIFICATION_TYPE": "U", "NORAD_CAT_ID": 36632, "ELEMENT_SET_NO": 999, "REV_AT_EPOCH": 65149, "BSTAR": 0.0011897932, "MEAN_MOTION_DOT": 3.995e-05, "MEAN_MOTION_DDOT": 0}, "tle": {"line1": "1 36632U 93036BEW 25342.16003469  .00003995  00000+0  11898-2 0  9990", "line2": "2 36632  74.0032 300.8928 0031760  49.8090 310.5839 14.43133085651491"}}, "geometry": {"type": "Point", "coordinates": [79.60646524996385, 65.21568561503436]}}]}